ONEWEB-0651             
1 56080U 23043AL  26168.50066875  .00000031  00000+0  49404-4 0  9999
2 56080  87.9002 259.1580 0002088  94.0429 266.0940 13.15548979157667
ONEWEB-0718             
1 56081U 23043AM  26167.73532544 -.00000058  00000+0 -18784-3 0  9992
2 56081  87.9002 259.2912 0002385 109.6141 250.5246 13.15546397156378
ONEWEB-0561             
1 56710U 23068A   26168.34919316  .00000037  00000+0  57854-4 0  9999
2 56710  87.9195 274.4108 0001719  91.2863 268.8467 13.20773060149524
ONEWEB-0668             
1 56711U 23068B   26168.12493448  .00000035  00000+0  57168-4 0  9995
2 56711  87.9095 228.7847 0002612  98.8347 261.3079 13.16594805151779
ONEWEB-0676             
1 56712U 23068C   26168.13284123  .00000080  00000+0  17498-3 0  9996
2 56712  87.9098 228.7893 0002029  88.6134 271.5229 13.16592763151699
ONEWEB-0677             
1 56713U 23068D   26168.33739921  .00000067  00000+0  13406-3 0  9990
2 56713  87.9195 274.4047 0002261  92.0132 268.1260 13.20770265149821
ONEWEB-0678             
1 56714U 23068E   26168.31210593 -.00000834  00000+0 -22498-2 0  9992
2 56714  87.9006 259.1684 0001944  99.0425 261.0926 13.15553927149301
ONEWEB-0679             
1 56715U 23068F   26167.86369148  .00000057  00000+0  11481-3 0  9999
2 56715  87.9098 228.8342 0002554  90.0898 270.0526 13.16595236151680
ONEWEB-0680             
1 56716U 23068G   26167.64170507  .00000085  00000+0  17370-3 0  9999
2 56716  87.9264 244.0795 0002638  97.7173 262.4260 13.21827758151022
ONEWEB-0681             
1 56717U 23068H   26168.15223750  .00000088  00000+0  18069-3 0  9995
2 56717  87.9254 243.9790 0001982  71.1584 288.9764 13.21826950151089
ONEWEB-0682             
1 56718U 23068J   26167.95559419  .00000006  00000+0 -18291-4 0  9996
2 56718  87.9010 259.2400 0002521  98.7154 261.4262 13.15549185149425
ONEWEB-0683             
1 56719U 23068K   26167.97936058 -.00000095  00000+0 -28751-3 0  9997
2 56719  87.9012 259.2350 0002284 102.8582 257.2804 13.15549099149395
ONEWEB-0684             
1 56720U 23068L   26168.29151034  .00000036  00000+0  60442-4 0  9995
2 56720  87.9008 259.1628 0001550 142.7032 217.4206 13.15548762149263
ONEWEB-0686             
1 56721U 23068M   26168.12810139  .00000117  00000+0  27122-3 0  9993
2 56721  87.9088 228.8050 0002264 106.0099 254.1281 13.16594636151708
ONEWEB-0694             
1 56722U 23068N   26168.13443133  .00000048  00000+0  92903-4 0  9994
2 56722  87.9108 228.7683 0002548  98.4505 261.6915 13.16594986151765
ONEWEB-0696             
1 56723U 23068P   26167.94448661  .00000065  00000+0  13785-3 0  9993
2 56723  87.9004 259.2704 0001511 102.7215 257.4084 13.15546503149331
ONEWEB-0703             
1 56724U 23068Q   26167.95400684  .00000042  00000+0  77618-4 0  9999
2 56724  87.9003 259.2495 0001128  88.8912 271.2348 13.15548647149226
ONEWEB-0721             
1 56725U 23068R   26168.51818847  .00000023  00000+0  19752-4 0  9991
2 56725  86.6766  85.4107 0001887  77.7448 282.3896 13.22469350157985
ONEWEB-0015             
1 61594U 24188A   26168.08055913 -.00000478  00000+0 -13843-2 0  9993
2 61594  87.8885  21.1142 0002182  73.9909 286.1459 13.11415820 84443
ONEWEB-0687             
1 61595U 24188B   26168.45859058  .00000020  00000+0  19548-4 0  9998
2 61595  87.9127   5.8226 0002359  86.8581 273.2820 13.17648347 85933
ONEWEB-0688             
1 61596U 24188C   26168.48727810  .00000011  00000+0 -43895-5 0  9996
2 61596  87.9127   5.8165 0002676  63.8846 296.2561 13.17649156 85933
ONEWEB-0689             
1 61597U 24188D   26168.49596139  .00000466  00000+0  12796-2 0  9992
2 61597  87.8900  20.9897 0002069  90.9972 269.1393 13.11419171 84497
ONEWEB-0690             
1 61598U 24188E   26168.50614701  .00000484  00000+0  13305-2 0  9998
2 61598  87.8894  20.9993 0001236  74.2464 285.8800 13.11415199 84677
ONEWEB-0691             
1 61599U 24188F   26168.50106529  .00000558  00000+0  15387-2 0  9997
2 61599  87.8905  20.9089 0002105  79.3490 280.7875 13.11417129 84523
ONEWEB-0692             
1 61600U 24188G   26168.52139765  .00000025  00000+0  33692-4 0  9990
2 61600  87.8884  21.0182 0001900 110.6775 249.4557 13.11413752 84511
ONEWEB-0693             
1 61601U 24188H   26168.49908794  .00000005  00000+0 -20693-4 0  9999
2 61601  87.9124   5.8343 0001284  66.8261 293.3006 13.17648337 85924
ONEWEB-0695             
1 61602U 24188J   26168.49767192  .00000487  00000+0  13395-2 0  9997
2 61602  87.8885  21.0149 0002062  98.9667 261.1694 13.11417021 84500
ONEWEB-0697             
1 61603U 24188K   26168.52986830 -.00000345  00000+0 -10099-2 0  9997
2 61603  87.8883  20.9986 0001799 110.4810 249.6511 13.11414520 84490
ONEWEB-0698             
1 61604U 24188L   26168.50784022  .00000499  00000+0  13711-2 0  9997
2 61604  87.8883  21.0172 0000947 120.9510 239.1711 13.11415105 84516
ONEWEB-0699             
1 61605U 24188M   26168.13914748  .00000275  00000+0  75192-3 0  9991
2 61605  87.8839  36.2760 0001619 104.1674 255.9634 13.10379287 83306
ONEWEB-0700             
1 61606U 24188N   26168.14080888  .00000214  00000+0  57787-3 0  9995
2 61606  87.8855  36.1845 0001988 102.8722 257.2627 13.10378400 83297
