OBJECT_NAME,OBJECT_ID,EPOCH,MEAN_MOTION,ECCENTRICITY,INCLINATION,RA_OF_ASC_NODE,ARG_OF_PERICENTER,MEAN_ANOMALY,EPHEMERIS_TYPE,CLASSIFICATION_TYPE,NORAD_CAT_ID,ELEMENT_SET_NO,REV_AT_EPOCH,BSTAR,MEAN_MOTION_DOT,MEAN_MOTION_DDOT
ONEWEB-0651,2023-043AL,2026-06-17T12:00:57.780000,13.15548979,.0002088,87.9002,259.1580,94.0429,266.0940,0,U,56080,999,15766,.49404E-4,.31E-6,0
ONEWEB-0718,2023-043AM,2026-06-16T17:38:52.118016,13.15546397,.0002385,87.9002,259.2912,109.6141,250.5246,0,U,56081,999,15637,-.18784E-3,-.58E-6,0
ONEWEB-0561,2023-068A,2026-06-17T08:22:50.289024,13.20773060,.0001719,87.9195,274.4108,91.2863,268.8467,0,U,56710,999,14952,.57854E-4,.37E-6,0
ONEWEB-0668,2023-068B,2026-06-17T02:59:54.339072,13.16594805,.0002612,87.9095,228.7847,98.8347,261.3079,0,U,56711,999,15177,.57168E-4,.35E-6,0
ONEWEB-0676,2023-068C,2026-06-17T03:11:17.482272,13.16592763,.0002029,87.9098,228.7893,88.6134,271.5229,0,U,56712,999,15169,.17498E-3,.8E-6,0
ONEWEB-0677,2023-068D,2026-06-17T08:05:51.291744,13.20770265,.0002261,87.9195,274.4047,92.0132,268.1260,0,U,56713,999,14982,.13406E-3,.67E-6,0
ONEWEB-0678,2023-068E,2026-06-17T07:29:25.952352,13.15553927,.0001944,87.9006,259.1684,99.0425,261.0926,0,U,56714,999,14930,-.22498E-2,-.834E-5,0
ONEWEB-0679,2023-068F,2026-06-16T20:43:42.943872,13.16595236,.0002554,87.9098,228.8342,90.0898,270.0526,0,U,56715,999,15168,.11481E-3,.57E-6,0
ONEWEB-0680,2023-068G,2026-06-16T15:24:03.318048,13.21827758,.0002638,87.9264,244.0795,97.7173,262.4260,0,U,56716,999,15102,.1737E-3,.85E-6,0
ONEWEB-0681,2023-068H,2026-06-17T03:39:13.320000,13.21826950,.0001982,87.9254,243.9790,71.1584,288.9764,0,U,56717,999,15108,.18069E-3,.88E-6,0
ONEWEB-0682,2023-068J,2026-06-16T22:56:03.338016,13.15549185,.0002521,87.9010,259.2400,98.7154,261.4262,0,U,56718,999,14942,-.18291E-4,.6E-7,0
ONEWEB-0683,2023-068K,2026-06-16T23:30:16.754112,13.15549099,.0002284,87.9012,259.2350,102.8582,257.2804,0,U,56719,999,14939,-.28751E-3,-.95E-6,0
ONEWEB-0684,2023-068L,2026-06-17T06:59:46.493376,13.15548762,.000155,87.9008,259.1628,142.7032,217.4206,0,U,56720,999,14926,.60442E-4,.36E-6,0
ONEWEB-0686,2023-068M,2026-06-17T03:04:27.960096,13.16594636,.0002264,87.9088,228.8050,106.0099,254.1281,0,U,56721,999,15170,.27122E-3,.117E-5,0
ONEWEB-0694,2023-068N,2026-06-17T03:13:34.866912,13.16594986,.0002548,87.9108,228.7683,98.4505,261.6915,0,U,56722,999,15176,.92903E-4,.48E-6,0
ONEWEB-0696,2023-068P,2026-06-16T22:40:03.643104,13.15546503,.0001511,87.9004,259.2704,102.7215,257.4084,0,U,56723,999,14933,.13785E-3,.65E-6,0
ONEWEB-0703,2023-068Q,2026-06-16T22:53:46.190976,13.15548647,.0001128,87.9003,259.2495,88.8912,271.2348,0,U,56724,999,14922,.77618E-4,.42E-6,0
ONEWEB-0721,2023-068R,2026-06-17T12:26:11.483808,13.22469350,.0001887,86.6766,85.4107,77.7448,282.3896,0,U,56725,999,15798,.19752E-4,.23E-6,0
ONEWEB-0015,2024-188A,2026-06-17T01:56:00.308832,13.11415820,.0002182,87.8885,21.1142,73.9909,286.1459,0,U,61594,999,8444,-.13843E-2,-.478E-5,0
ONEWEB-0687,2024-188B,2026-06-17T11:00:22.226112,13.17648347,.0002359,87.9127,5.8226,86.8581,273.2820,0,U,61595,999,8593,.19548E-4,.2E-6,0
ONEWEB-0688,2024-188C,2026-06-17T11:41:40.827840,13.17649156,.0002676,87.9127,5.8165,63.8846,296.2561,0,U,61596,999,8593,-.43895E-5,.11E-6,0
ONEWEB-0689,2024-188D,2026-06-17T11:54:11.064096,13.11419171,.0002069,87.8900,20.9897,90.9972,269.1393,0,U,61597,999,8449,.12796E-2,.466E-5,0
ONEWEB-0690,2024-188E,2026-06-17T12:08:51.101664,13.11415199,.0001236,87.8894,20.9993,74.2464,285.8800,0,U,61598,999,8467,.13305E-2,.484E-5,0
ONEWEB-0691,2024-188F,2026-06-17T12:01:32.041056,13.11417129,.0002105,87.8905,20.9089,79.3490,280.7875,0,U,61599,999,8452,.15387E-2,.558E-5,0
ONEWEB-0692,2024-188G,2026-06-17T12:30:48.756960,13.11413752,.00019,87.8884,21.0182,110.6775,249.4557,0,U,61600,999,8451,.33692E-4,.25E-6,0
ONEWEB-0693,2024-188H,2026-06-17T11:58:41.198016,13.17648337,.0001284,87.9124,5.8343,66.8261,293.3006,0,U,61601,999,8592,-.20693E-4,.5E-7,0
ONEWEB-0695,2024-188J,2026-06-17T11:56:38.853888,13.11417021,.0002062,87.8885,21.0149,98.9667,261.1694,0,U,61602,999,8450,.13395E-2,.487E-5,0
ONEWEB-0697,2024-188K,2026-06-17T12:43:00.621120,13.11414520,.0001799,87.8883,20.9986,110.4810,249.6511,0,U,61603,999,8449,-.10099E-2,-.345E-5,0
ONEWEB-0698,2024-188L,2026-06-17T12:11:17.395008,13.11415105,.0000947,87.8883,21.0172,120.9510,239.1711,0,U,61604,999,8451,.13711E-2,.499E-5,0
ONEWEB-0699,2024-188M,2026-06-17T03:20:22.342272,13.10379287,.0001619,87.8839,36.2760,104.1674,255.9634,0,U,61605,999,8330,.75192E-3,.275E-5,0
ONEWEB-0700,2024-188N,2026-06-17T03:22:45.887232,13.10378400,.0001988,87.8855,36.1845,102.8722,257.2627,0,U,61606,999,8329,.57787E-3,.214E-5,0
